SL-8 R/B                
1 11574U 79089B   26095.24065642  .00000448  00000+0  14331-3 0  9992
2 11574  74.0703  41.8915 0016489 210.7878 149.2313 14.42369799439935
SL-14 R/B               
1 11672U 80005B   26095.23741522  .00000817  00000+0  79958-4 0  9995
2 11672  82.5107 282.0459 0017219  76.3357 283.9778 14.90963526480442
SL-8 R/B                
1 12139U 81003B   26095.21607239  .00026742  00000+0  66451-3 0  9995
2 12139  82.9347 265.4699 0259608  86.5099 276.5785 15.12235300318687
SL-3 R/B                
1 12465U 81046B   26095.25457729  .00015547  00000+0  35338-3 0  9996
2 12465  81.2293 257.8222 0018057 287.5998  72.3273 15.42699969442523
SL-3 R/B                
1 12904U 81103B   26095.27499961  .00006254  00000+0  27458-3 0  9993
2 12904  81.1606 182.2451 0013112 192.2554 167.8361 15.21711769977273
SL-3 R/B                
1 13068U 82013B   26095.27259521  .00004665  00000+0  20013-3 0  9996
2 13068  81.1719 129.6078 0023529  90.7526 269.6402 15.22267140408393
SL-3 R/B                
1 13154U 82039B   26095.29277994  .00003680  00000+0  22159-3 0  9995
2 13154  81.1553 185.2847 0028142 235.6286 124.2278 15.10244354385655
SL-3 R/B                
1 13403U 82079B   26095.24102196  .00006672  00000+0  26263-3 0  9996
2 13403  81.1471 161.7242 0025351  77.7164 282.6906 15.25167086381743
SL-14 R/B               
1 13553U 82092B   26095.16328914  .00000591  00000+0  63603-4 0  9990
2 13553  82.5649 116.6315 0019518 209.4272 218.5798 14.86691931332866
SL-3 R/B                
1 13819U 83010B   26095.08968888  .00017184  00000+0  33474-3 0  9995
2 13819  81.1028 329.8610 0015396 318.9513  41.0573 15.47283831362022
SL-3 R/B                
1 14208U 83075B   26095.28463395  .00013742  00000+0  35369-3 0  9995
2 14208  97.6136 100.8822 0022907 131.4249 228.8969 15.39093083334245
COSMOS 1536             
1 14699U 84013A   26095.24600161  .00008905  00000+0  36295-3 0  9996
2 14699  82.5422  81.4369 0014226 180.6693 179.4528 15.24222075276666
SL-14 R/B               
1 14820U 84027B   26095.08917896  .00000742  00000+0  81956-4 0  9991
2 14820  82.5428 220.2528 0016639 243.9096 116.0408 14.86007203251554
SL-8 R/B                
1 15483U 85006B   26095.30123154  .00000405  00000+0  14292-3 0  9990
2 15483  74.0462 212.1792 0017441 121.9276 270.5976 14.37803448157859
SL-12 R/B(2)            
1 15772U 85042D   26095.15099579  .00000179  00000+0  10186-3 0  9993
2 15772  71.1101  31.8216 0032840  84.1794  12.2007 14.21990564118155
SL-14 R/B               
1 15945U 85069B   26095.13322616  .00000654  00000+0  70979-4 0  9998
2 15945  82.5304   0.0751 0020315 103.6390 256.7091 14.86463317176764
SL-16 R/B               
1 16182U 85097B   26095.24654204 -.00000127  00000+0 -39680-4 0  9997
2 16182  71.0009  84.6409 0009156 227.8787 152.6979 14.16602446 90990
